ONEWEB-0520             
1 54138U 22138AB  25195.21438956 -.00000049  00000+0 -15480-3 0  9992
2 54138  87.9213  12.1334 0002222  92.4492 267.6895 13.19723916133119
ONEWEB-0521             
1 54139U 22138AC  25195.02011361  .00000030  00000+0  42720-4 0  9995
2 54139  87.9213  12.1593 0001617  96.2515 263.8802 13.19725663133063
ONEWEB-0522             
1 54140U 22138AD  25195.22703213 -.00000008  00000+0 -52232-4 0  9999
2 54140  87.9211  12.1191 0001958  90.4093 269.7264 13.19725440133107
ONEWEB-0523             
1 54141U 22138AE  25194.85216146 -.00000025  00000+0 -92267-4 0  9993
2 54141  87.9282 341.8395 0001069  82.8332 277.2923 13.20770124134645
ONEWEB-0524             
1 54142U 22138AF  25194.84111026 -.00000054  00000+0 -16546-3 0  9991
2 54142  87.9280 341.8433 0001926  67.3507 292.7830 13.20769830134642
ONEWEB-0525             
1 54143U 22138AG  25194.94272425 -.00000031  00000+0 -10900-3 0  9997
2 54143  87.9215  12.1954 0002156  93.2354 266.9025 13.19725948132211
ONEWEB-0526             
1 54144U 22138AH  25195.50660972 -.00000003  00000+0 -40171-4 0  9992
2 54144  87.9215  12.0714 0001959  90.2079 269.9278 13.19724584133136
ONEWEB-0529             
1 54145U 22138AJ  25195.20650091  .00000074  00000+0  15131-3 0  9994
2 54145  87.9215  12.1745 0002106  91.3177 268.8197 13.19724614133118
